NORAD_CAT_ID,OBJECT_NAME,OBJECT_TYPE,EPOCH,MEAN_MOTION,ECCENTRICITY,INCLINATION,RA_OF_ASC_NODE,ARG_OF_PERICENTER,MEAN_ANOMALY,BSTAR,MEAN_MOTION_DOT,MEAN_MOTION_DDOT,TLE_LINE0,TLE_LINE1,TLE_LINE2,SEMIMAJOR_AXIS,PERIOD,APOGEE,PERIGEE,DECAYED
52465.0,STARLINK-3863,PAYLOAD,2023-02-26 06:20:44,15.08875067,0.000124,53.2162,340.5511,73.2052,286.9076,0.0022246,0.00035328,0.0,0 STARLINK-3863,1 52465U 22049Q   23057.26440635  .00035328  00000-0  22246-2 0  9995,2 52465  53.2162 340.5511 0001240  73.2052 286.9076 15.08875067 45204,6917.773,95.435,540.496,538.78,0.0
52465.0,STARLINK-3863,PAYLOAD,2023-02-26 20:39:12,15.08863283,0.0001203,53.2163,337.8745,85.8841,274.2288,0.0015774,0.00024921,0.0,0 STARLINK-3863,1 52465U 22049Q   23057.86056467  .00024921  00000-0  15774-2 0  9992,2 52465  53.2163 337.8745 0001203  85.8841 274.2288 15.08863283 45456,6917.809,95.436,540.506,538.842,0.0
52465.0,STARLINK-3863,PAYLOAD,2023-02-27 01:25:21,15.08875583,0.0001387,53.2164,336.983,59.4317,300.6811,0.001918,0.00030399,0.0,0 STARLINK-3863,1 52465U 22049Q   23058.05928175  .00030399  00000-0  19180-2 0  9999,2 52465  53.2164 336.9830 0001387  59.4317 300.6811 15.08875583 45328,6917.772,95.435,540.596,538.677,0.0
52465.0,STARLINK-3863,PAYLOAD,2023-02-27 18:54:35,15.08922098,0.0001648,53.2166,333.7099,59.3332,300.7822,0.0051252,0.0008242,0.0,0 STARLINK-3863,1 52465U 22049Q   23058.78791215  .00082420  00000-0  51252-2 0  9990,2 52465  53.2166 333.7099 0001648  59.3332 300.7822 15.08922098 45437,6917.629,95.432,540.634,538.354,0.0
52465.0,STARLINK-3863,PAYLOAD,2023-02-28 01:16:07,15.08902194,0.0001642,53.2164,332.5213,60.7535,299.3621,0.0023966,0.00038126,0.0,0 STARLINK-3863,1 52465U 22049Q   23059.05286479  .00038126  00000-0  23966-2 0  9997,2 52465  53.2164 332.5213 0001642  60.7535 299.3621 15.08902194 45632,6917.69,95.434,540.691,538.419,0.0
52465.0,STARLINK-3863,PAYLOAD,2023-02-28 21:56:10,15.08802576,9.25e-05,53.2163,328.6574,26.4904,333.6135,0.0010114,0.00015829,0.0,0 STARLINK-3863,1 52465U 22049Q   23059.91401438  .00015829  00000-0  10114-2 0  9992,2 52465  53.2163 328.6574 0000925  26.4904 333.6135 15.08802576 45601,6917.995,95.44,540.5,539.22,0.0
52465.0,STARLINK-3863,PAYLOAD,2023-02-28 23:31:34,15.08799771,9.79e-05,53.216,328.3604,21.7784,338.3249,0.00087015,0.00013572,0.0,0 STARLINK-3863,1 52465U 22049Q   23059.98025663  .00013572  00000-0  87015-3 0  9999,2 52465  53.2160 328.3604 0000979  21.7784 338.3249 15.08799771 45770,6918.003,95.44,540.546,539.191,0.0
52465.0,STARLINK-3863,PAYLOAD,2023-03-01 04:17:44,15.08784291,0.0001171,53.2159,327.4669,120.9693,239.1415,0.0012161,0.0001909,0.0,0 STARLINK-3863,1 52465U 22049Q   23060.17898235  .00019090  00000-0  12161-2 0  9995,2 52465  53.2159 327.4669 0001171 120.9693 239.1415 15.08784291 45803,6918.051,95.441,540.726,539.106,0.0
52465.0,STARLINK-3863,PAYLOAD,2023-03-01 21:46:59,15.08801689,0.0001178,53.2169,324.195,127.9821,232.1277,0.001808,0.00028573,0.0,0 STARLINK-3863,1 52465U 22049Q   23060.90763460  .00028573  00000-0  18080-2 0  9999,2 52465  53.2169 324.1950 0001178 127.9821 232.1277 15.08801689 45752,6917.997,95.44,540.677,539.048,0.0
52465.0,STARLINK-3863,PAYLOAD,2023-03-02 02:33:08,15.08845391,0.0001164,53.2161,323.3035,127.3321,232.7777,0.0017155,0.00027124,0.0,0 STARLINK-3863,1 52465U 22049Q   23061.10635252  .00027124  00000-0  17155-2 0  9992,2 52465  53.2161 323.3035 0001164 127.3321 232.7777 15.08845391 45943,6917.864,95.437,540.534,538.924,0.0
52465.0,STARLINK-3863,PAYLOAD,2023-03-03 02:23:54,15.08890068,0.0001196,53.2161,318.8437,131.5287,228.5808,0.0022116,0.00035134,0.0,0 STARLINK-3863,1 52465U 22049Q   23062.09994023  .00035134  00000-0  22116-2 0  9998,2 52465  53.2161 318.8437 0001196 131.5287 228.5808 15.08890068 46097,6917.727,95.434,540.42,538.765,0.0
52465.0,STARLINK-3863,PAYLOAD,2023-03-03 21:28:31,15.08888725,2.88e-05,53.2164,315.2739,127.125,232.9769,0.0023842,0.00037912,0.0,0 STARLINK-3863,1 52465U 22049Q   23062.89480951  .00037912  00000-0  23842-2 0  9999,2 52465  53.2164 315.2739 0000288 127.1250 232.9769 15.08888725 46056,6917.731,95.434,539.796,539.397,0.0
52465.0,STARLINK-3863,PAYLOAD,2023-03-03 23:03:54,15.08877247,7.18e-05,53.2163,314.9767,89.8299,270.2776,0.0013927,0.00021969,0.0,0 STARLINK-3863,1 52465U 22049Q   23062.96104953  .00021969  00000-0  13927-2 0  9990,2 52465  53.2163 314.9767 0000718  89.8299 270.2776 15.08877247 46226,6917.767,95.435,540.128,539.135,0.0
52465.0,STARLINK-3863,PAYLOAD,2023-03-04 22:54:42,15.08840815,9.45e-05,53.2154,310.5151,81.16,278.9499,0.0012782,0.00020114,0.0,0 STARLINK-3863,1 52465U 22049Q   23063.95466009  .00020114  00000-0  12782-2 0  9992,2 52465  53.2154 310.5151 0000945  81.1600 278.9499 15.08840815 46372,6917.878,95.438,540.397,539.089,0.0
52465.0,STARLINK-3863,PAYLOAD,2023-03-05 02:05:28,15.08832291,0.0001119,53.216,309.92,71.0998,289.0116,0.00093262,0.00014583,0.0,0 STARLINK-3863,1 52465U 22049Q   23064.08714083  .00014583  00000-0  93262-3 0  9991,2 52465  53.2160 309.9200 0001119  71.0998 289.0116 15.08832291 46398,6917.904,95.438,540.543,538.995,0.0
52465.0,STARLINK-3863,PAYLOAD,2023-03-05 22:45:29,15.08851142,0.0001054,53.2157,306.0557,68.9478,291.1627,0.0020117,0.00031883,0.0,0 STARLINK-3863,1 52465U 22049Q   23064.94826256  .00031883  00000-0  20117-2 0  9992,2 52465  53.2157 306.0557 0001054  68.9478 291.1627 15.08851142 46367,6917.846,95.437,540.44,538.982,0.0
52465.0,STARLINK-3863,PAYLOAD,2023-03-06 22:36:16,15.08848787,0.0001173,53.2155,301.5939,75.0189,285.0933,0.0010263,0.00016087,0.0,0 STARLINK-3863,1 52465U 22049Q   23065.94186278  .00016087  00000-0  10263-2 0  9996,2 52465  53.2155 301.5939 0001173  75.0189 285.0933 15.08848787 46519,6917.854,95.437,540.53,538.907,0.0
52465.0,STARLINK-3863,PAYLOAD,2023-03-07 06:33:12,15.08846794,0.0001263,53.2157,300.108,79.7779,280.3356,0.00070125,0.00010892,0.0,0 STARLINK-3863,1 52465U 22049Q   23066.27306168  .00010892  00000-0  70125-3 0  9997,2 52465  53.2157 300.1080 0001263  79.7779 280.3356 15.08846794 46725,6917.86,95.437,540.598,538.851,0.0
52465.0,STARLINK-3863,PAYLOAD,2023-03-07 16:05:31,15.08839472,0.0001337,53.215,298.3263,92.2381,267.8764,9.1349e-05,1.166e-05,0.0,0 STARLINK-3863,1 52465U 22049Q   23066.67050383  .00001166  00000-0  91349-4 0  9992,2 52465  53.2150 298.3263 0001337  92.2381 267.8764 15.08839472 46784,6917.882,95.438,540.672,538.822,0.0
52465.0,STARLINK-3863,PAYLOAD,2023-03-07 22:27:03,15.08855443,0.0001389,53.2143,297.1347,86.803,273.3121,0.00026189,3.884e-05,0.0,0 STARLINK-3863,1 52465U 22049Q   23066.93545388  .00003884  00000-0  26189-3 0  9993,2 52465  53.2143 297.1347 0001389  86.8030 273.3121 15.08855443 46665,6917.833,95.437,540.659,538.737,0.0
52465.0,STARLINK-3863,PAYLOAD,2023-03-08 01:37:49,15.0885612,0.000135,53.2153,296.5404,88.2359,271.8788,0.00029527,4.416e-05,0.0,0 STARLINK-3863,1 52465U 22049Q   23067.06793289  .00004416  00000-0  29527-3 0  9994,2 52465  53.2153 296.5404 0001350  88.2359 271.8788 15.08856120 46846,6917.831,95.437,540.63,538.762,0.0
52465.0,STARLINK-3863,PAYLOAD,2023-03-08 23:53:14,15.08837652,8.52e-05,53.2145,292.3786,111.4969,248.6114,5.1124e-05,5.26e-06,0.0,0 STARLINK-3863,1 52465U 22049Q   23067.99530388  .00000526  00000-0  51124-4 0  9992,2 52465  53.2145 292.3786 0000852 111.4969 248.6114 15.08837652 46985,6917.888,95.438,540.342,539.163,0.0
52465.0,STARLINK-3863,PAYLOAD,2023-03-09 22:08:38,15.08850322,0.000126,53.2149,288.214,76.1168,283.9964,0.0004326,6.606e-05,0.0,0 STARLINK-3863,1 52465U 22049Q   23068.92266335  .00006606  00000-0  43260-3 0  9990,2 52465  53.2149 288.2140 0001260  76.1168 283.9964 15.08850322 46961,6917.849,95.437,540.585,538.842,0.0
52465.0,STARLINK-3863,PAYLOAD,2023-03-09 23:44:01,15.08851575,0.0001183,53.2146,287.9166,78.5534,281.5591,0.00064103,9.932e-05,0.0,0 STARLINK-3863,1 52465U 22049Q   23068.98890364  .00009932  00000-0  64103-3 0  9995,2 52465  53.2146 287.9166 0001183  78.5534 281.5591 15.08851575 47130,6917.845,95.437,540.528,538.892,0.0
52465.0,STARLINK-3863,PAYLOAD,2023-03-10 07:40:58,15.0881591,0.0001665,53.2137,286.4291,78.7628,281.3551,0.00023234,3.409e-05,0.0,0 STARLINK-3863,1 52465U 22049Q   23069.32012420  .00003409  00000-0  23234-3 0  9996,2 52465  53.2137 286.4291 0001665  78.7628 281.3551 15.08815910 47186,6917.954,95.439,540.971,538.667,0.0
52465.0,STARLINK-3863,PAYLOAD,2023-03-10 20:24:04,15.08803392,0.0001298,53.214,284.0525,58.6942,301.4177,-0.00035857,-5.984e-05,0.0,0 STARLINK-3863,1 52465U 22049Q   23069.85004972 -.00005984  00000-0 -35857-3 0  9993,2 52465  53.2140 284.0525 0001298  58.6942 301.4177 15.08803392 47103,6917.992,95.44,540.755,538.959,0.0
52465.0,STARLINK-3863,PAYLOAD,2023-03-10 21:59:27,15.08808832,0.0001239,53.2148,283.7552,59.5753,300.5362,-0.00020658,-3.571e-05,0.0,0 STARLINK-3863,1 52465U 22049Q   23069.91629097 -.00003571  00000-0 -20658-3 0  9994,2 52465  53.2148 283.7552 0001239  59.5753 300.5362 15.08808832 47270,6917.976,95.44,540.698,538.984,0.0
52465.0,STARLINK-3863,PAYLOAD,2023-03-11 13:53:18,15.08836861,9e-05,53.2143,280.7777,69.7937,290.3152,0.00049001,7.519e-05,0.0,0 STARLINK-3863,1 52465U 22049Q   23070.57868850  .00007519  00000-0  49001-3 0  9997,2 52465  53.2143 280.7777 0000900  69.7937 290.3152 15.08836861 47212,6917.89,95.438,540.378,539.132,0.0
52465.0,STARLINK-3863,PAYLOAD,2023-03-11 23:25:36,15.08860834,0.0001474,53.2145,278.9941,69.4598,290.6552,0.00094267,0.00014755,0.0,0 STARLINK-3863,1 52465U 22049Q   23070.97612168  .00014755  00000-0  94267-3 0  9994,2 52465  53.2145 278.9941 0001474  69.4598 290.6552 15.08860834 47431,6917.817,95.436,540.701,538.662,0.0
52465.0,STARLINK-3863,PAYLOAD,2023-03-12 13:44:04,15.08859912,0.0001533,53.214,276.3194,62.8315,297.2834,0.00053551,8.25e-05,0.0,0 STARLINK-3863,1 52465U 22049Q   23071.57227941  .00008250  00000-0  53551-3 0  9996,2 52465  53.2140 276.3194 0001533  62.8315 297.2834 15.08859912 47529,6917.82,95.436,540.745,538.624,0.0
